GLOBALSTAR M024         
1 25883U 99043A   24291.47657932 -.00000118  00000+0 -18880-2 0  9990
2 25883  51.9999 208.2612 0002174  53.4123 118.9819 11.10160279 87902
GLOBALSTAR M027         
1 25884U 99043B   24291.28893204 -.00000090  00000+0 -99963-3 0  9995
2 25884  52.0208 279.7859 0021378 320.0324  39.8895 11.04370023114401
GLOBALSTAR M054         
1 25885U 99043C   24291.89535872 -.00000072  00000+0 -21510-4 0  9991
2 25885  52.0127  86.3889 0006797 122.2288  47.7327 11.39205342 91766
GLOBALSTAR M053         
1 25886U 99043D   24291.53665486 -.00000063  00000+0  16261-3 0  9993
2 25886  52.0021  20.8824 0003456  39.7734 333.4849 11.27659280 92079
GLOBALSTAR M058         
1 25907U 99049A   24291.70878641 -.00000007  00000+0  10413-2 0  9991
2 25907  51.9968  36.6480 0002432 153.8612 206.2346 11.93185941123806
GLOBALSTAR M050         
1 25908U 99049B   24291.76860538 -.00000066  00000+0  25380-3 0  9999
2 25908  52.0001  62.2739 0008318 266.8617 243.6295 12.07441104123639
GLOBALSTAR M033         
1 25909U 99049C   24291.73396323  .00000003  00000+0  91068-3 0  9999
2 25909  51.9918 310.9556 0012985 125.2512 234.9553 12.20287400138865
GLOBALSTAR M055         
1 25910U 99049D   24291.57358772 -.00000036  00000+0  49531-3 0  9994
2 25910  52.0039 333.9615 0006958 350.5272   9.5448 12.29411572138668
